QIANFAN-60              
1 62790U 25016F   25232.81468913  .00000110  00000+0  15154-3 0  9992
2 62790  88.9799 114.8670 0014375 320.7480  39.2628 13.50960991 31846
QIANFAN-61              
1 62791U 25016G   25232.82719680  .00000093  00000+0  12496-3 0  9990
2 62791  88.9867 114.9460 0013792 319.5345  40.4780 13.50966704 31862
QIANFAN-62              
1 62792U 25016H   25232.83118961  .00000082  00000+0  10803-3 0  9995
2 62792  88.9813 114.8757 0015183 319.2681  40.7333 13.50960624 31859
QIANFAN-63              
1 62793U 25016J   25232.91765150  .00000098  00000+0  13405-3 0  9991
2 62793  88.9819 114.8077 0015138 323.8528  36.1599 13.50957681 31900
QIANFAN-64              
1 62794U 25016K   25232.83528956  .00000097  00000+0  13116-3 0  9992
2 62794  88.9806 114.8116 0012781 318.5419  41.4762 13.50960257 31883
QIANFAN-65              
1 62795U 25016L   25232.81891304  .00000098  00000+0  13407-3 0  9995
2 62795  88.9803 114.8404 0013024 320.4712  39.5488 13.50964215 31869
QIANFAN-66              
1 62796U 25016M   25232.92169993  .00000106  00000+0  14569-3 0  9990
2 62796  88.9822 114.7777 0013987 314.8454  45.1560 13.50959328 31921
QIANFAN-67              
1 62797U 25016N   25232.92582968  .00000110  00000+0  15124-3 0  9995
2 62797  88.9812 114.8139 0014172 322.1398  37.8755 13.50968063 31896
QIANFAN-68              
1 62798U 25016P   25232.92991490  .00000114  00000+0  15786-3 0  9998
2 62798  88.9816 114.8576 0014750 320.0278  39.9786 13.50965529 31871
QIANFAN-69              
1 62799U 25016Q   25232.93403016  .00000104  00000+0  14256-3 0  9992
2 62799  88.9794 114.7482 0014952 320.9767  39.0304 13.50961059 31914
QIANFAN-70              
1 62800U 25016R   25232.87645428  .00000103  00000+0  14161-3 0  9997
2 62800  88.9816 114.8683 0014236 311.1046  48.8875 13.50964886 31869
QIANFAN-71              
1 62801U 25016S   25232.94648657  .00000098  00000+0  13370-3 0  9997
2 62801  88.9810 114.8477 0014985 324.6818  35.3339 13.50964656 31874
QIANFAN-72              
1 62802U 25016T   25232.94227163  .00000092  00000+0  12371-3 0  9997
2 62802  88.9799 114.8677 0018607 330.0205  29.9880 13.50960039 31869
QIANFAN-73              
1 63159U 25046A   25232.84187048  .00000120  00000+0  16654-3 0  9992
2 63159  88.9864 331.7699 0016999  95.1825 265.1267 13.50963626 32039
QIANFAN-74              
1 63160U 25046B   25232.89944243  .00000150  00000+0  21440-3 0  9999
2 63160  88.9863 331.6525 0002023 108.3670 251.7701 13.50968920 32109
QIANFAN-75              
1 63161U 25046C   25232.88718294  .00000130  00000+0  18312-3 0  9996
2 63161  88.9864 331.8857 0018162  97.8345 262.4869 13.50964965 31976
QIANFAN-76              
1 63162U 25046D   25232.80887737  .00000136  00000+0  19230-3 0  9994
2 63162  88.9864 331.8748 0015738  98.8618 261.4316 13.50961746 31976
QIANFAN-77              
1 63163U 25046E   25232.86660398  .00000310  00000+0  21648-3 0  9993
2 63163  88.9861 330.8101 0016794  80.1800 280.1272 13.96019615 32560
QIANFAN-78              
1 63164U 25046F   25232.85011956  .00000141  00000+0  19993-3 0  9995
2 63164  88.9863 331.7359 0017123 100.6819 259.6261 13.50964858 32054
QIANFAN-79              
1 63165U 25046G   25232.87880830  .00000137  00000+0  19312-3 0  9993
2 63165  88.9867 331.8360 0016789  99.1536 261.1516 13.50967081 32004
QIANFAN-80              
1 63166U 25046H   25232.89538035  .00000133  00000+0  18733-3 0  9995
2 63166  88.9864 331.5444 0015813 102.9815 257.3102 13.50966968 32160
QIANFAN-81              
1 63167U 25046J   25232.87478277  .00000123  00000+0  17221-3 0  9995
2 63167  88.9864 331.6149 0016712  92.7309 267.5755 13.50965600 32111
QIANFAN-82              
1 63168U 25046K   25232.83353451  .00000143  00000+0  20240-3 0  9995
2 63168  88.9864 331.6626 0014932 100.0198 260.2639 13.50962629 32099
QIANFAN-83              
1 63169U 25046L   25232.89737960  .00000166  00000+0  19962-3 0  9997
2 63169  88.9864 331.6555 0016161  92.1548 268.1461 13.61938128 32108
QIANFAN-84              
1 63170U 25046M   25232.86230719  .00000145  00000+0  20584-3 0  9995
2 63170  88.9864 331.7927 0017863  96.3902 263.9284 13.50970050 32029
QIANFAN-85              
1 63171U 25046N   25232.85833027  .00000143  00000+0  20231-3 0  9993
2 63171  88.9864 331.6654 0015267  98.9828 261.3052 13.50963583 32092
QIANFAN-86              
1 63172U 25046P   25232.86655214  .00000140  00000+0  19826-3 0  9990
2 63172  88.9866 331.5240 0013182 102.9330 257.3295 13.50964079 32177
QIANFAN-87              
1 63173U 25046Q   25232.83767797  .00000139  00000+0  19579-3 0  9991
2 63173  88.9862 331.6429 0013857  98.5285 261.7436 13.50960762 32106
QIANFAN-88              
1 63174U 25046R   25232.85424484  .00000140  00000+0  19751-3 0  9991
2 63174  88.9864 331.5930 0014280 105.3249 254.9481 13.50968051 32139
QIANFAN-89              
1 63175U 25046S   25232.89115075  .00000134  00000+0  18906-3 0  9993
2 63175  88.9864 331.7781 0018533  96.7050 263.6211 13.50968826 32031
QIANFAN-90              
1 63176U 25046T   25232.84588732  .00000118  00000+0  16374-3 0  9992
2 63176  88.9865 331.7550 0015468  95.5990 264.6925 13.50967742 32041
